FLOCK 4BE-17            
1 60492U 24149AA  26198.95055544  .00009265  00000+0  22952-3 0  9998
2 60492  97.3762 282.5799 0004553 139.8515 220.3069 15.40622360106994
FLOCK 4BE-22            
1 60494U 24149AC  26198.77440390  .00009253  00000+0  21878-3 0  9990
2 60494  97.3728 282.6432 0004870 146.6652 213.4902 15.42035940107010
FLOCK 4BE-34            
1 60495U 24149AD  26198.79202703  .00008773  00000+0  20780-3 0  9994
2 60495  97.3780 283.5025 0005048 154.1697 205.9803 15.41999308107043
FLOCK 4BE-32            
1 60497U 24149AF  26198.80417333  .00010280  00000+0  23402-3 0  9995
2 60497  97.3713 283.0829 0005114 151.1661 208.9870 15.43141684107056
FLOCK 4BE-11            
1 60501U 24149AK  26198.78285971  .00010264  00000+0  22754-3 0  9990
2 60501  97.3691 283.3204 0005203 151.4241 208.7293 15.43931788107074
FLOCK 4BE-24            
1 60505U 24149AP  26198.50695904  .00011485  00000+0  25243-3 0  9997
2 60505  97.3708 283.3103 0005185 162.8670 197.2755 15.44157393107041
FLOCK 4BE-29            
1 60509U 24149AT  26198.69002519  .00023375  00000+0  48661-3 0  9995
2 60509  97.3805 285.0482 0003744 170.4207 189.7115 15.45608628107120
FLOCK 4BE-2             
1 60511U 24149AV  26197.80093516  .00043143  00000+0  61823-3 0  9997
2 60511  97.3829 286.0140 0005363 168.9366 191.2008 15.56038813107100
FLOCK 4BE-13            
1 60512U 24149AW  26198.77966889  .00007763  00000+0  18013-3 0  9998
2 60512  97.3713 283.5247 0005276 148.2418 211.9148 15.42659205107086
FLOCK 4BE-27            
1 60513U 24149AX  26198.90416834  .00005300  00000+0  15872-3 0  9999
2 60513  97.3818 280.7796 0004305 172.7036 187.4271 15.34946092106853
FLOCK 4BE-9             
1 60514U 24149AY  26197.69615951  .00011929  00000+0  28513-3 0  9996
2 60514  97.3789 282.2704 0003834 166.7214 193.4134 15.41640499106860
FLOCK 4BE-6             
1 60516U 24149BA  26198.78830663  .00007842  00000+0  19631-3 0  9998
2 60516  97.3785 282.6733 0004553 165.3197 194.8183 15.40361316106987
FLOCK 4BE-14            
1 60517U 24149BB  26197.76917732  .00010395  00000+0  24668-3 0  9992
2 60517  97.3690 281.8103 0005529 171.7333 188.4006 15.41887264106880
FLOCK 4BE-1             
1 60518U 24149BC  26198.79109751  .00010114  00000+0  22700-3 0  9995
2 60518  97.3773 284.2313 0005253 167.7345 192.4032 15.43568068107093
FLOCK 4BE-28            
1 60519U 24149BD  26198.69204518  .00023640  00000+0  47844-3 0  9996
2 60519  97.3741 284.9557 0005398 168.3600 191.7775 15.46424923107154
FLOCK 4BE-5             
1 60559U 24149CV  26198.81232136  .00009393  00000+0  22910-3 0  9997
2 60559  97.3836 283.1243 0004250 164.0794 196.0587 15.41092972106999
